{"type": "FeatureCollection", "features": [ {"type": "Feature", "properties": {"norad_id": 33917, "name": "COSMOS 2251 DEB", "group": "cosmos-2251-debris", "lat": -24.845374974770323, "lon": -36.64313299477391, "alt_km": 799.1932130449204, "timestamp": "2025-12-04T13:52:00.834674+00:00", "meta": {"OBJECT_NAME": "COSMOS 2251 DEB", "OBJECT_ID": "1993-036DW", "EPOCH": "2025-12-04T04:04:21.260928", "MEAN_MOTION": 13.69339365, "ECCENTRICITY": 0.03311618, "INCLINATION": 74.1067, "RA_OF_ASC_NODE": 136.4453, "ARG_OF_PERICENTER": 239.3044, "MEAN_ANOMALY": 117.5059, "EPHEMERIS_TYPE": 0, "CLASSIFICATION_TYPE": "U", "NORAD_CAT_ID": 33917, "ELEMENT_SET_NO": 999, "REV_AT_EPOCH": 83616, "BSTAR": 0.0012276293, "MEAN_MOTION_DOT": 1.543e-05, "MEAN_MOTION_DDOT": 0}, "tle": {"line1": "1 33917U 93036DW  25338.16969052  .00001543  00000+0  12276-2 0  9995", "line2": "2 33917  74.1067 136.4453 0331161 239.3044 117.5059 13.69339365836166"}}, "geometry": {"type": "Point", "coordinates": [-36.64313299477391, -24.845374974770323]}}, {"type": "Feature", "properties": {"norad_id": 33920, "name": "COSMOS 2251 DEB", "group": "cosmos-2251-debris", "lat": -21.343153533037455, "lon": 140.34516407660018, "alt_km": 717.8775411748402, "timestamp": "2025-12-04T13:52:00.834684+00:00", "meta": {"OBJECT_NAME": "COSMOS 2251 DEB", "OBJECT_ID": "1993-036DZ", "EPOCH": "2025-12-03T23:45:57.286368", "MEAN_MOTION": 14.5801116, "ECCENTRICITY": 0.00385766, "INCLINATION": 74.0629, "RA_OF_ASC_NODE": 315.0497, "ARG_OF_PERICENTER": 322.9779, "MEAN_ANOMALY": 36.8724, "EPHEMERIS_TYPE": 0, "CLASSIFICATION_TYPE": "U", "NORAD_CAT_ID": 33920, "ELEMENT_SET_NO": 999, "REV_AT_EPOCH": 87987, "BSTAR": 0.0041324358, "MEAN_MOTION_DOT": 0.00019211, "MEAN_MOTION_DDOT": 0}, "tle": {"line1": "1 33920U 93036DZ  25337.99024637  .00019211  00000+0  41324-2 0  9997", "line2": "2 33920  74.0629 315.0497 0038576 322.9779  36.8724 14.58011160879870"}}, "geometry": {"type": "Point", "coordinates": [140.34516407660018, -21.343153533037455]}}, {"type": "Feature", "properties": {"norad_id": 33922, "name": "COSMOS 2251 DEB", "group": "cosmos-2251-debris", "lat": -55.49021816641379, "lon": 7.653591926431115, "alt_km": 720.6489267981715, "timestamp": "2025-12-04T13:52:00.834694+00:00", "meta": {"OBJECT_NAME": "COSMOS 2251 DEB", "OBJECT_ID": "1993-036EB", "EPOCH": "2025-12-04T06:58:09.168960", "MEAN_MOTION": 14.49461891, "ECCENTRICITY": 0.00232604, "INCLINATION": 74.0458, "RA_OF_ASC_NODE": 163.605, "ARG_OF_PERICENTER": 275.1787, "MEAN_ANOMALY": 264.8227, "EPHEMERIS_TYPE": 0, "CLASSIFICATION_TYPE": "U", "NORAD_CAT_ID": 33922, "ELEMENT_SET_NO": 999, "REV_AT_EPOCH": 88455, "BSTAR": 0.00071303346, "MEAN_MOTION_DOT": 2.713e-05, "MEAN_MOTION_DDOT": 0}, "tle": {"line1": "1 33922U 93036EB  25338.29038390  .00002713  00000+0  71303-3 0  9994", "line2": "2 33922  74.0458 163.6050 0023260 275.1787 264.8227 14.49461891884558"}}, "geometry": {"type": "Point", "coordinates": [7.653591926431115, -55.49021816641379]}}, {"type": "Feature", "properties": {"norad_id": 33924, "name": "COSMOS 2251 DEB", "group": "cosmos-2251-debris", "lat": -18.7400447192816, "lon": 108.93914190516725, "alt_km": 1220.993970922972, "timestamp": "2025-12-04T13:52:00.834704+00:00", "meta": {"OBJECT_NAME": "COSMOS 2251 DEB", "OBJECT_ID": "1993-036ED", "EPOCH": "2025-12-04T07:30:49.502880", "MEAN_MOTION": 13.50199211, "ECCENTRICITY": 0.04040625, "INCLINATION": 73.9132, "RA_OF_ASC_NODE": 283.7464, "ARG_OF_PERICENTER": 320.6773, "MEAN_ANOMALY": 36.5615, "EPHEMERIS_TYPE": 0, "CLASSIFICATION_TYPE": "U", "NORAD_CAT_ID": 33924, "ELEMENT_SET_NO": 999, "REV_AT_EPOCH": 82625, "BSTAR": 0.002086131, "MEAN_MOTION_DOT": 2.189e-05, "MEAN_MOTION_DDOT": 0}, "tle": {"line1": "1 33924U 93036ED  25338.31307295  .00002189  00000+0  20861-2 0  9991", "line2": "2 33924  73.9132 283.7464 0404062 320.6773  36.5615 13.50199211826257"}}, "geometry": {"type": "Point", "coordinates": [108.93914190516725, -18.7400447192816]}}, {"type": "Feature", "properties": {"norad_id": 33928, "name": "COSMOS 2251 DEB", "group": "cosmos-2251-debris", "lat": 33.92998346457354, "lon": -123.25336334399888, "alt_km": 765.1111319718266, "timestamp": "2025-12-04T13:52:00.834715+00:00", "meta": {"OBJECT_NAME": "COSMOS 2251 DEB", "OBJECT_ID": "1993-036EH", "EPOCH": "2025-12-04T06:34:08.512896", "MEAN_MOTION": 14.4738084, "ECCENTRICITY": 0.00610434, "INCLINATION": 73.9259, "RA_OF_ASC_NODE": 68.5035, "ARG_OF_PERICENTER": 4.493, "MEAN_ANOMALY": 355.6762, "EPHEMERIS_TYPE": 0, "CLASSIFICATION_TYPE": "U", "NORAD_CAT_ID": 33928, "ELEMENT_SET_NO": 999, "REV_AT_EPOCH": 88522, "BSTAR": 0.00048351159, "MEAN_MOTION_DOT": 1.786e-05, "MEAN_MOTION_DDOT": 0}, "tle": {"line1": "1 33928U 93036EH  25338.27370964  .00001786  00000+0  48351-3 0  9990", "line2": "2 33928  73.9259  68.5035 0061043   4.4930 355.6762 14.47380840885221"}}, "geometry": {"type": "Point", "coordinates": [-123.25336334399888, 33.92998346457354]}}, {"type": "Feature", "properties": {"norad_id": 33932, "name": "COSMOS 2251 DEB", "group": "cosmos-2251-debris", "lat": 3.8548125993900797, "lon": 149.8662377769231, "alt_km": 779.530574110976, "timestamp": "2025-12-04T13:52:00.834725+00:00", "meta": {"OBJECT_NAME": "COSMOS 2251 DEB", "OBJECT_ID": "1993-036EM", "EPOCH": "2025-12-04T06:22:47.183232", "MEAN_MOTION": 14.38720155, "ECCENTRICITY": 0.00349012, "INCLINATION": 74.0335, "RA_OF_ASC_NODE": 331.5467, "ARG_OF_PERICENTER": 50.2038, "MEAN_ANOMALY": 310.218, "EPHEMERIS_TYPE": 0, "CLASSIFICATION_TYPE": "U", "NORAD_CAT_ID": 33932, "ELEMENT_SET_NO": 999, "REV_AT_EPOCH": 87876, "BSTAR": 0.00083420269, "MEAN_MOTION_DOT": 2.553e-05, "MEAN_MOTION_DDOT": 0}, "tle": {"line1": "1 33932U 93036EM  25338.26582388  .00002553  00000+0  83420-3 0  9998", "line2": "2 33932  74.0335 331.5467 0034901  50.2038 310.2180 14.38720155878765"}}, "geometry": {"type": "Point", "coordinates": [149.8662377769231, 3.8548125993900797]}}, {"type": "Feature", "properties": {"norad_id": 33933, "name": "COSMOS 2251 DEB", "group": "cosmos-2251-debris", "lat": 0.5952363346575223, "lon": -105.15840607358444, "alt_km": 785.3210224428485, "timestamp": "2025-12-04T13:52:00.834735+00:00", "meta": {"OBJECT_NAME": "COSMOS 2251 DEB", "OBJECT_ID": "1993-036EN", "EPOCH": "2025-12-04T08:00:58.005216", "MEAN_MOTION": 14.33467786, "ECCENTRICITY": 0.00708315, "INCLINATION": 74.0892, "RA_OF_ASC_NODE": 75.4555, "ARG_OF_PERICENTER": 86.3969, "MEAN_ANOMALY": 274.528, "EPHEMERIS_TYPE": 0, "CLASSIFICATION_TYPE": "U", "NORAD_CAT_ID": 33933, "ELEMENT_SET_NO": 999, "REV_AT_EPOCH": 87664, "BSTAR": 0.00062365546, "MEAN_MOTION_DOT": 1.747e-05, "MEAN_MOTION_DDOT": 0}, "tle": {"line1": "1 33933U 93036EN  25338.33400469  .00001747  00000+0  62366-3 0  9996", "line2": "2 33933  74.0892  75.4555 0070831  86.3969 274.5280 14.33467786876642"}}, "geometry": {"type": "Point", "coordinates": [-105.15840607358444, 0.5952363346575223]}}, {"type": "Feature", "properties": {"norad_id": 33934, "name": "COSMOS 2251 DEB", "group": "cosmos-2251-debris", "lat": -73.08011351806228, "lon": 6.333686083133593, "alt_km": 693.1083512093101, "timestamp": "2025-12-04T13:52:00.834745+00:00", "meta": {"OBJECT_NAME": "COSMOS 2251 DEB", "OBJECT_ID": "1993-036EP", "EPOCH": "2025-12-03T20:12:07.664832", "MEAN_MOTION": 14.58975729, "ECCENTRICITY": 0.0016013, "INCLINATION": 74.0367, "RA_OF_ASC_NODE": 117.5224, "ARG_OF_PERICENTER": 241.086, "MEAN_ANOMALY": 118.87, "EPHEMERIS_TYPE": 0, "CLASSIFICATION_TYPE": "U", "NORAD_CAT_ID": 33934, "ELEMENT_SET_NO": 999, "REV_AT_EPOCH": 88609, "BSTAR": 0.0019454, "MEAN_MOTION_DOT": 9.129e-05, "MEAN_MOTION_DDOT": 0}, "tle": {"line1": "1 33934U 93036EP  25337.84175538  .00009129  00000+0  19454-2 0  9999", "line2": "2 33934  74.0367 117.5224 0016013 241.0860 118.8700 14.58975729886098"}}, "geometry": {"type": "Point", "coordinates": [6.333686083133593, -73.08011351806228]}}, {"type": "Feature", "properties": {"norad_id": 33936, "name": "COSMOS 2251 DEB", "group": "cosmos-2251-debris", "lat": 21.603784562098607, "lon": -133.43341318934426, "alt_km": 679.9217648005597, "timestamp": "2025-12-04T13:52:00.834756+00:00", "meta": {"OBJECT_NAME": "COSMOS 2251 DEB", "OBJECT_ID": "1993-036ER", "EPOCH": "2025-12-04T06:34:10.119936", "MEAN_MOTION": 14.60179598, "ECCENTRICITY": 0.00280777, "INCLINATION": 74.0196, "RA_OF_ASC_NODE": 53.6633, "ARG_OF_PERICENTER": 210.5437, "MEAN_ANOMALY": 149.4095, "EPHEMERIS_TYPE": 0, "CLASSIFICATION_TYPE": "U", "NORAD_CAT_ID": 33936, "ELEMENT_SET_NO": 999, "REV_AT_EPOCH": 88766, "BSTAR": 0.0018402634, "MEAN_MOTION_DOT": 8.897e-05, "MEAN_MOTION_DDOT": 0}, "tle": {"line1": "1 33936U 93036ER  25338.27372824  .00008897  00000+0  18403-2 0  9990", "line2": "2 33936  74.0196  53.6633 0028077 210.5437 149.4095 14.60179598887662"}}, "geometry": {"type": "Point", "coordinates": [-133.43341318934426, 21.603784562098607]}}, {"type": "Feature", "properties": {"norad_id": 33938, "name": "COSMOS 2251 DEB", "group": "cosmos-2251-debris", "lat": 44.114020566291124, "lon": -121.48392912906779, "alt_km": 734.5574763652157, "timestamp": "2025-12-04T13:52:00.834766+00:00", "meta": {"OBJECT_NAME": "COSMOS 2251 DEB", "OBJECT_ID": "1993-036ET", "EPOCH": "2025-12-03T22:46:29.915040", "MEAN_MOTION": 14.46749708, "ECCENTRICITY": 0.00168723, "INCLINATION": 74.0461, "RA_OF_ASC_NODE": 223.5875, "ARG_OF_PERICENTER": 306.3273, "MEAN_ANOMALY": 66.1352, "EPHEMERIS_TYPE": 0, "CLASSIFICATION_TYPE": "U", "NORAD_CAT_ID": 33938, "ELEMENT_SET_NO": 999, "REV_AT_EPOCH": 88273, "BSTAR": 0.00092330133, "MEAN_MOTION_DOT": 3.321e-05, "MEAN_MOTION_DDOT": 0}, "tle": {"line1": "1 33938U 93036ET  25337.94895735  .00003321  00000+0  92330-3 0  9995", "line2": "2 33938  74.0461 223.5875 0016872 306.3273  66.1352 14.46749708882731"}}, "geometry": {"type": "Point", "coordinates": [-121.48392912906779, 44.114020566291124]}}]}